NORAD_CAT_ID,OBJECT_NAME,OBJECT_TYPE,EPOCH,MEAN_MOTION,ECCENTRICITY,INCLINATION,RA_OF_ASC_NODE,ARG_OF_PERICENTER,MEAN_ANOMALY,BSTAR,MEAN_MOTION_DOT,MEAN_MOTION_DDOT,TLE_LINE0,TLE_LINE1,TLE_LINE2,SEMIMAJOR_AXIS,PERIOD,APOGEE,PERIGEE,DECAYED
49431.0,STARLINK-3153,PAYLOAD,2022-04-08 14:00:03,15.08852184,0.0002199,53.2155,173.5973,32.5265,358.2407,0.00072683,0.00011302,0.0,0 STARLINK-3153,1 49431U 21104Z   22098.58336806  .00011302  00000-0  72683-3 0  9995,2 49431  53.2155 173.5973 0002199  32.5265 358.2407 15.08852184  3603,6917.843000000003,95.437,541.229,538.187,0.0
49431.0,STARLINK-3153,PAYLOAD,2022-04-08 22:00:00,15.08868943,0.0002,53.2151,172.0995,31.109,11.1518,-0.0048217,-0.00076276,0.0,0 STARLINK-3153,1 49431U 21104Z   22098.91667824 -.00076276  00000-0 -48217-2 0  9997,2 49431  53.2151 172.0995 0002000  31.1090  11.1518 15.08868943 23722,6917.792,95.436,541.04,538.273,0.0
49431.0,STARLINK-3153,PAYLOAD,2022-04-09 14:00:01,15.08807146,0.0002141,53.2152,169.1084,28.8523,36.5664,0.002013,0.00031866,0.0,0 STARLINK-3153,1 49431U 21104Z   22099.58334491  .00031866  00000-0  20130-2 0  9990,2 49431  53.2152 169.1084 0002141  28.8523  36.5664 15.08807146  3605,6917.981,95.44,541.327,538.365,0.0
49431.0,STARLINK-3153,PAYLOAD,2022-04-09 16:00:00,15.08819493,0.0002171,53.2149,168.7341,28.2,130.1162,0.001953,0.00030914,0.0,0 STARLINK-3153,1 49431U 21104Z   22099.66667824  .00030914  00000-0  19530-2 0  9993,2 49431  53.2149 168.7341 0002171  28.2000 130.1162 15.08819493 23838,6917.943,95.439,541.31,538.306,0.0
49431.0,STARLINK-3153,PAYLOAD,2022-04-09 22:00:00,15.08836945,0.0002052,53.215,167.6104,32.0758,44.9298,-0.0016954,-0.00027168,0.0,0 STARLINK-3153,1 49431U 21104Z   22099.91667824 -.00027168  00000-0 -16954-2 0  9997,2 49431  53.2150 167.6104 0002052  32.0758  44.9298 15.08836945  3602,6917.89,95.438,541.174,538.335,0.0
49431.0,STARLINK-3153,PAYLOAD,2022-04-10 14:00:01,15.08811919,0.0002172,53.2152,164.6192,26.7415,73.4774,0.0031745,0.00050559,0.0,0 STARLINK-3153,1 49431U 21104Z   22100.58334491  .00050559  00000-0  31745-2 0  9997,2 49431  53.2152 164.6192 0002172  26.7415  73.4774 15.08811919 23973,6917.965999999999,95.439,541.3340000000002,538.3290000000002,0.0
49431.0,STARLINK-3153,PAYLOAD,2022-04-10 22:00:00,15.08866121,0.0002074,53.2152,163.1212,29.3775,82.443,-0.0020662,-0.00033046,0.0,0 STARLINK-3153,1 49431U 21104Z   22100.91667824 -.00033046  00000-0 -20662-2 0  9993,2 49431  53.2152 163.1212 0002074  29.3775  82.4430 15.08866121  3601,6917.801,95.436,541.1,538.231,0.0
49431.0,STARLINK-3153,PAYLOAD,2022-04-11 06:00:00,15.08848643,0.0002122,53.2154,161.6247,33.2117,90.2072,-2.8334e-05,-7.39e-06,0.0,0 STARLINK-3153,1 49431U 21104Z   22101.25001157 -.00000739  00000-0 -28334-4 0  9991,2 49431  53.2154 161.6247 0002122  33.2117  90.2072 15.08848643 24074,6917.854,95.437,541.187,538.251,0.0
49431.0,STARLINK-3153,PAYLOAD,2022-04-11 14:00:01,15.08830204,0.0002334,53.2155,160.13,29.1553,105.8604,-0.00037886,-6.311e-05,0.0,0 STARLINK-3153,1 49431U 21104Z   22101.58334491 -.00006311  00000-0 -37886-3 0  9990,2 49431  53.2155 160.1300 0002334  29.1553 105.8604 15.08830204  3606,6917.91,95.438,541.39,538.161,0.0
49431.0,STARLINK-3153,PAYLOAD,2022-04-11 22:00:00,15.08804812,0.0002181,53.2157,158.632,31.1975,115.406,-0.0016848,-0.00026977,0.0,0 STARLINK-3153,1 49431U 21104Z   22101.91667824 -.00026977  00000-0 -16848-2 0  9990,2 49431  53.2157 158.6320 0002181  31.1975 115.4060 15.08804812 24177,6917.988,95.44,541.362,538.344,0.0
49431.0,STARLINK-3153,PAYLOAD,2022-04-12 14:00:01,15.08799195,0.0002414,53.216,155.6411,29.0884,140.6056,0.0034107,0.00054353,0.0,0 STARLINK-3153,1 49431U 21104Z   22102.58334491  .00054353  00000-0  34107-2 0  9990,2 49431  53.2160 155.6411 0002414  29.0884 140.6056 15.08799195 24276,6918.005,95.44,541.54,538.2,0.0
49431.0,STARLINK-3153,PAYLOAD,2022-04-12 22:00:00,15.08825795,0.0002232,53.2167,154.1436,30.9454,150.3233,0.0012741,0.0002004,0.0,0 STARLINK-3153,1 49431U 21104Z   22102.91667824  .00020040  00000-0  12741-2 0  9992,2 49431  53.2167 154.1436 0002232  30.9454 150.3233 15.08825795  3566,6917.924,95.438,541.3330000000002,538.245,0.0
49431.0,STARLINK-3153,PAYLOAD,2022-04-13 14:00:03,15.088220000000002,0.0002495,53.2162,151.1519,30.2955,174.2859,0.00339,0.00054053,0.0,0 STARLINK-3153,1 49431U 21104Z   22103.58336806  .00054053  00000-0  33900-2 0  9990,2 49431  53.2162 151.1519 0002495  30.2955 174.2859 15.08822000 24423,6917.935,95.439,541.526,538.0740000000002,0.0
49431.0,STARLINK-3153,PAYLOAD,2022-04-13 22:00:00,15.08844019,0.0002287,53.2162,149.6538,32.6218,183.4424,0.0017657,0.00027928,0.0,0 STARLINK-3153,1 49431U 21104Z   22103.91667824  .00027928  00000-0  17657-2 0  9996,2 49431  53.2162 149.6538 0002287  32.6218 183.4424 15.08844019  3604,6917.868,95.437,541.315,538.151,0.0
49431.0,STARLINK-3153,PAYLOAD,2022-04-14 06:00:00,15.08886919,0.0002293,53.2163,148.158,33.3417,194.321,-0.0044602,-0.0007067,0.0,0 STARLINK-3153,1 49431U 21104Z   22104.25001157 -.00070670  00000-0 -44602-2 0  9999,2 49431  53.2163 148.1580 0002293  33.3417 194.3210 15.08886919 24525,6917.736999999999,95.435,541.188,538.016,0.0
49431.0,STARLINK-3153,PAYLOAD,2022-04-14 14:00:01,15.08818242,0.0002448,53.2159,146.6627,28.6621,210.6268,0.0023761,0.00037709,0.0,0 STARLINK-3153,1 49431U 21104Z   22104.58334491  .00037709  00000-0  23761-2 0  9992,2 49431  53.2159 146.6627 0002448  28.6621 210.6268 15.08818242  3606,6917.946999999999,95.439,541.505,538.118,0.0
49431.0,STARLINK-3153,PAYLOAD,2022-04-14 22:00:00,15.0882242,0.0002206,53.2158,145.1644,29.9908,220.8995,0.00019051,2.744e-05,0.0,0 STARLINK-3153,1 49431U 21104Z   22104.91667824  .00002744  00000-0  19051-3 0  9997,2 49431  53.2158 145.1644 0002206  29.9908 220.8995 15.08822420 24620,6917.934,95.439,541.325,538.273,0.0
49431.0,STARLINK-3153,PAYLOAD,2022-04-15 14:00:01,15.08826151,0.000242,53.2152,142.1734,28.0966,245.9719,0.0029587,0.00047098,0.0,0 STARLINK-3153,1 49431U 21104Z   22105.58334491  .00047098  00000-0  29587-2 0  9997,2 49431  53.2152 142.1734 0002420  28.0966 245.9719 15.08826151  3605,6917.9230000000025,95.438,541.462,538.114,0.0
49431.0,STARLINK-3153,PAYLOAD,2022-04-15 22:00:00,15.08827226,0.0002193,53.2151,140.6751,30.91,254.7571,0.0025821,0.00041032,0.0,0 STARLINK-3153,1 49431U 21104Z   22105.91667824  .00041032  00000-0  25821-2 0  9992,2 49431  53.2151 140.6751 0002193  30.9100 254.7571 15.08827226 24774,6917.919,95.438,541.302,538.2669999999998,0.0
49431.0,STARLINK-3153,PAYLOAD,2022-04-16 14:00:01,15.08809585,0.0002378,53.2144,137.6838,26.6325,282.2183,0.0018206,0.00028782,0.0,0 STARLINK-3153,1 49431U 21104Z   22106.58334491  .00028782  00000-0  18206-2 0  9993,2 49431  53.2144 137.6838 0002378  26.6325 282.2183 15.08809585 24878,6917.973000000001,95.439,541.4830000000002,538.193,0.0
49431.0,STARLINK-3153,PAYLOAD,2022-04-16 22:00:01,15.08802485,0.0002176,53.2143,136.1855,30.414,290.0797,0.0027908,0.00044362,0.0,0 STARLINK-3153,1 49431U 21104Z   22106.91668981  .00044362  00000-0  27908-2 0  9995,2 49431  53.2143 136.1855 0002176  30.4140 290.0797 15.08802485  3590,6917.995,95.44,541.365,538.355,0.0
49431.0,STARLINK-3153,PAYLOAD,2022-04-17 06:00:00,15.08843828,0.0002301,53.2144,134.6902,30.8589,301.1369,-0.0016366,-0.00026244,0.0,0 STARLINK-3153,1 49431U 21104Z   22107.25001157 -.00026244  00000-0 -16366-2 0  9996,2 49431  53.2144 134.6902 0002301  30.8589 301.1369 15.08843828 24978,6917.869000000002,95.437,541.325,538.1419999999998,0.0
49431.0,STARLINK-3153,PAYLOAD,2022-04-17 14:00:01,15.08824045,0.0002447,53.2139,133.1944,28.1828,315.3978,0.0012142,0.00019081,0.0,0 STARLINK-3153,1 49431U 21104Z   22107.58334491  .00019081  00000-0  12142-2 0  9999,2 49431  53.2139 133.1944 0002447  28.1828 315.3978 15.08824045  3609,6917.929,95.439,541.487,538.101,0.0
49431.0,STARLINK-3153,PAYLOAD,2022-04-17 22:00:00,15.08812337,0.0002254,53.214,131.696,32.2492,322.9282,0.0030466,0.00048497,0.0,0 STARLINK-3153,1 49431U 21104Z   22107.91667824  .00048497  00000-0  30466-2 0  9997,2 49431  53.2140 131.6960 0002254  32.2492 322.9282 15.08812337  3570,6917.965,95.439,541.389,538.271,0.0
49431.0,STARLINK-3153,PAYLOAD,2022-04-18 06:00:00,15.08856246,0.0002417,53.2141,130.2007,32.5132,334.2451,-0.0016079999999999,-0.00025801,0.0,0 STARLINK-3153,1 49431U 21104Z   22108.25001157 -.00025801  00000-0 -16080-2 0  9998,2 49431  53.2141 130.2007 0002417  32.5132 334.2451 15.08856246 25129,6917.831,95.437,541.368,538.024,0.0
49431.0,STARLINK-3153,PAYLOAD,2022-04-18 14:00:01,15.08841095,0.0002551,53.2139,128.7047,29.764,348.5924,0.00081937,0.00012777,0.0,0 STARLINK-3153,1 49431U 21104Z   22108.58334491  .00012777  00000-0  81937-3 0  9994,2 49431  53.2139 128.7047 0002551  29.7640 348.5924 15.08841095  3601,6917.877,95.437,541.507,537.977,0.0
49431.0,STARLINK-3153,PAYLOAD,2022-04-18 22:00:00,15.08825755,0.0002366,53.2142,127.2063,33.6976,356.2723,0.0031813,0.00050688,0.0,0 STARLINK-3153,1 49431U 21104Z   22108.91667824  .00050688  00000-0  31813-2 0  9990,2 49431  53.2142 127.2063 0002366  33.6976 356.2723 15.08825755 25238,6917.924,95.438,541.4259999999998,538.1519999999998,0.0
49431.0,STARLINK-3153,PAYLOAD,2022-04-19 14:00:01,15.08859484,0.0002624,53.2145,124.215,30.2256,22.9582,-0.0019326,-0.00030932,0.0,0 STARLINK-3153,1 49431U 21104Z   22109.58334491 -.00030932  00000-0 -19326-2 0  9992,2 49431  53.2145 124.2150 0002624  30.2256  22.9582 15.08859484  3609,6917.821,95.436,541.501,537.871,0.0
49431.0,STARLINK-3153,PAYLOAD,2022-04-20 06:00:00,15.08856293,0.0002607,53.2152,121.2218,33.2613,43.1239,-0.0014822,-0.00023812,0.0,0 STARLINK-3153,1 49431U 21104Z   22110.25001157 -.00023812  00000-0 -14822-2 0  9993,2 49431  53.2152 121.2218 0002607  33.2613  43.1239 15.08856293 25434,6917.831,95.437,541.499,537.8919999999998,0.0
